GLOBALSTAR M080         
1 38041U 11080B   26117.07520135 -.00000090  00000+0  77973-4 0  9992
2 38041  52.0042 174.5870 0000726 143.2414 225.2202 12.62268540662439
GLOBALSTAR M082         
1 38042U 11080C   26117.32915743 -.00000084  00000+0  10927-3 0  9992
2 38042  52.0049 129.3077 0000361 144.7212 228.4085 12.62269333663178
GLOBALSTAR M092         
1 38043U 11080D   26117.30748552 -.00000105  00000+0 -82970-5 0  9997
2 38043  52.0085 219.7690 0000499 122.2742 271.7024 12.62266719661622
GLOBALSTAR M090         
1 38044U 11080E   26117.21226319 -.00000086  00000+0  97453-4 0  9998
2 38044  52.0101 123.6024 0000075  96.6801 344.1281 12.62268308663275
GLOBALSTAR M086         
1 38045U 11080F   26117.29894003 -.00000075  00000+0  15947-3 0  9993
2 38045  51.9872 123.3517 0000871 306.7910  65.6159 12.62285529663232
GLOBALSTAR M097         
1 39072U 13005A   26117.24691672 -.00000106  00000+0 -11156-4 0  9990
2 39072  52.0065  38.3968 0000444  76.9250 283.1667 12.62260063610478
GLOBALSTAR M093         
1 39073U 13005B   26117.14147834 -.00000097  00000+0  36198-4 0  9997
2 39073  52.0126  32.0478 0000327  84.1132 275.9772 12.62264616610412
GLOBALSTAR M094         
1 39074U 13005C   26117.22071952 -.00000082  00000+0  12094-3 0  9996
2 39074  51.9962 305.9781 0000649 114.4848 245.6087 12.62267874612038
GLOBALSTAR M096         
1 39075U 13005D   26116.99648346 -.00000085  00000+0  10318-3 0  9997
2 39075  52.0099 355.4206 0000653  95.0446 265.0496 12.62264361610921
GLOBALSTAR M078         
1 39076U 13005E   26117.20694745 -.00000107  00000+0 -19570-4 0  9993
2 39076  51.9870  78.8543 0001036 129.2195 230.8764 12.62266002609575
GLOBALSTAR M095         
1 39077U 13005F   26117.23376250 -.00000105  00000+0 -66663-5 0  9999
2 39077  52.0076  76.3057 0000363 128.9990 231.0909 12.62267332609436
GLOBALSTAR M087         
1 52888U 22064A   26117.24721527 -.00000101  00000+0  14226-4 0  9993
2 52888  51.9993 217.5378 0000577 155.4660 204.6234 12.62268388184705
